{
  "type": "FeatureCollection",
  "features": [
    {
      "type": "Feature",
      "properties": {
        "norad_id": 66548,
        "name": "CZ-2C R/B",
        "group": "last-30-days",
        "lat": -22.93380916831107,
        "lon": -171.54402052019984,
        "alt_km": 440.95480167936876,
        "timestamp": "2025-12-08T23:34:02.739851+00:00",
        "meta_object_name": "CZ-2C R/B",
        "meta_object_id": "2025-266D",
        "meta_epoch": "2025-12-08T11:41:13.292160",
        "meta_mean_motion": 15.30043808,
        "meta_eccentricity": 0.0084198,
        "meta_inclination": 52.0568,
        "meta_ra_of_asc_node": 351.5381,
        "meta_arg_of_pericenter": 158.5167,
        "meta_mean_anomaly": 201.9387,
        "meta_ephemeris_type": 0,
        "meta_classification_type": "U",
        "meta_norad_cat_id": 66548,
        "meta_element_set_no": 999,
        "meta_rev_at_epoch": 296,
        "meta_bstar": 0.00042890925,
        "meta_mean_motion_dot": 0.00013724,
        "meta_mean_motion_ddot": 0,
        "tle_line1": "1 66548U 25266D   25342.48695940  .00013724  00000+0  42891-3 0  9994",
        "tle_line2": "2 66548  52.0568 351.5381 0084198 158.5167 201.9387 15.30043808  2965"
      },
      "geometry": {
        "type": "Point",
        "coordinates": [
          -171.54402052019984,
          -22.93380916831107
        ]
      }
    },
    {
      "type": "Feature",
      "properties": {
        "norad_id": 66549,
        "name": "SHIJIAN-28",
        "group": "last-30-days",
        "lat": 6.261077026723257,
        "lon": -53.3213296859393,
        "alt_km": 27881.427489289334,
        "timestamp": "2025-12-08T23:34:02.739867+00:00",
        "meta_object_name": "SHIJIAN-28",
        "meta_object_id": "2025-277A",
        "meta_epoch": "2025-12-01T04:36:42.476256",
        "meta_mean_motion": 2.08595383,
        "meta_eccentricity": 0.6308324,
        "meta_inclination": 11.5392,
        "meta_ra_of_asc_node": 275.706,
        "meta_arg_of_pericenter": 179.9335,
        "meta_mean_anomaly": 180.3971,
        "meta_ephemeris_type": 0,
        "meta_classification_type": "U",
        "meta_norad_cat_id": 66549,
        "meta_element_set_no": 999,
        "meta_rev_at_epoch": 5,
        "meta_bstar": 0,
        "meta_mean_motion_dot": -3.3e-07,
        "meta_mean_motion_ddot": 0,
        "tle_line1": "1 66549U 25277A   25335.19215829 -.00000033  00000+0  00000+0 0  9993",
        "tle_line2": "2 66549  11.5392 275.7060 6308324 179.9335 180.3971  2.08595383    50"
      },
      "geometry": {
        "type": "Point",
        "coordinates": [
          -53.3213296859393,
          6.261077026723257
        ]
      }
    },
    {
      "type": "Feature",
      "properties": {
        "norad_id": 66550,
        "name": "CZ-7A R/B",
        "group": "last-30-days",
        "lat": 8.790224155280313,
        "lon": -51.263714811749544,
        "alt_km": 21443.341211137427,
        "timestamp": "2025-12-08T23:34:02.739884+00:00",
        "meta_object_name": "CZ-7A R/B",
        "meta_object_id": "2025-277B",
        "meta_epoch": "2025-12-08T10:49:33.009600",
        "meta_mean_motion": 2.55273447,
        "meta_eccentricity": 0.71238594,
        "meta_inclination": 14.4003,
        "meta_ra_of_asc_node": 272.0222,
        "meta_arg_of_pericenter": 184.9879,
        "meta_mean_anomaly": 159.498,
        "meta_ephemeris_type": 0,
        "meta_classification_type": "U",
        "meta_norad_cat_id": 66550,
        "meta_element_set_no": 999,
        "meta_rev_at_epoch": 23,
        "meta_bstar": 0.0028793489,
        "meta_mean_motion_dot": 0.01610432,
        "meta_mean_motion_ddot": 9.12994e-07,
        "tle_line1": "1 66550U 25277B   25342.45107650  .01610432  91299-6  28793-2 0  9993",
        "tle_line2": "2 66550  14.4003 272.0222 7123859 184.9879 159.4980  2.55273447   234"
      },
      "geometry": {
        "type": "Point",
        "coordinates": [
          -51.263714811749544,
          8.790224155280313
        ]
      }
    },
    {
      "type": "Feature",
      "properties": {
        "norad_id": 66551,
        "name": "UNKNOWN",
        "group": "last-30-days",
        "lat": -10.131216821491106,
        "lon": -162.28608132307755,
        "alt_km": 339.86765832556557,
        "timestamp": "2025-12-08T23:34:02.739895+00:00",
        "meta_object_name": "UNKNOWN",
        "meta_object_id": "2025-271AE",
        "meta_epoch": "2025-12-02T16:00:03.000096",
        "meta_mean_motion": 15.87051116,
        "meta_eccentricity": 7.17e-05,
        "meta_inclination": 53.1571,
        "meta_ra_of_asc_node": 236.7807,
        "meta_arg_of_pericenter": 110.7411,
        "meta_mean_anomaly": 313.9012,
        "meta_ephemeris_type": 0,
        "meta_classification_type": "U",
        "meta_norad_cat_id": 66551,
        "meta_element_set_no": 999,
        "meta_rev_at_epoch": 262,
        "meta_bstar": -0.0074303,
        "meta_mean_motion_dot": -0.01709685,
        "meta_mean_motion_ddot": 0,
        "tle_line1": "1 66551U 25271AE  25336.66670139 -.01709685  00000+0 -74303-2 0  9993",
        "tle_line2": "2 66551  53.1571 236.7807 0000717 110.7411 313.9012 15.87051116  2624"
      },
      "geometry": {
        "type": "Point",
        "coordinates": [
          -162.28608132307755,
          -10.131216821491106
        ]
      }
    },
    {
      "type": "Feature",
      "properties": {
        "norad_id": 66554,
        "name": "GLOBAL-33",
        "group": "last-30-days",
        "lat": -10.339543093533072,
        "lon": -89.62511421832411,
        "alt_km": 475.4275430704365,
        "timestamp": "2025-12-08T23:34:02.739908+00:00",
        "meta_object_name": "GLOBAL-33",
        "meta_object_id": "2025-267A",
        "meta_epoch": "2025-12-08T13:19:37.894080",
        "meta_mean_motion": 15.31498164,
        "meta_eccentricity": 0.00047931,
        "meta_inclination": 42.0201,
        "meta_ra_of_asc_node": 81.1482,
        "meta_arg_of_pericenter": 22.7031,
        "meta_mean_anomaly": 337.4018,
        "meta_ephemeris_type": 0,
        "meta_classification_type": "U",
        "meta_norad_cat_id": 66554,
        "meta_element_set_no": 999,
        "meta_rev_at_epoch": 276,
        "meta_bstar": 0.00059832068,
        "meta_mean_motion_dot": 0.00018392,
        "meta_mean_motion_ddot": 0,
        "tle_line1": "1 66554U 25267A   25342.55529970  .00018392  00000+0  59832-3 0  9998",
        "tle_line2": "2 66554  42.0201  81.1482 0004793  22.7031 337.4018 15.31498164  2762"
      },
      "geometry": {
        "type": "Point",
        "coordinates": [
          -89.62511421832411,
          -10.339543093533072
        ]
      }
    },
    {
      "type": "Feature",
      "properties": {
        "norad_id": 66555,
        "name": "ELECTRON KICK STAGE R/B",
        "group": "last-30-days",
        "lat": -37.663568519786885,
        "lon": -42.42489384482153,
        "alt_km": 474.7884187032996,
        "timestamp": "2025-12-08T23:34:02.739919+00:00",
        "meta_object_name": "ELECTRON KICK STAGE R/B",
        "meta_object_id": "2025-267B",
        "meta_epoch": "2025-12-08T13:06:52.531776",
        "meta_mean_motion": 15.32503128,
        "meta_eccentricity": 0.00068692,
        "meta_inclination": 42.0196,
        "meta_ra_of_asc_node": 81.083,
        "meta_arg_of_pericenter": 20.9024,
        "meta_mean_anomaly": 339.2093,
        "meta_ephemeris_type": 0,
        "meta_classification_type": "U",
        "meta_norad_cat_id": 66555,
        "meta_element_set_no": 999,
        "meta_rev_at_epoch": 276,
        "meta_bstar": 0.00096183495,
        "meta_mean_motion_dot": 0.00030739,
        "meta_mean_motion_ddot": 0,
        "tle_line1": "1 66555U 25267B   25342.54644134  .00030739  00000+0  96183-3 0  9997",
        "tle_line2": "2 66555  42.0196  81.0830 0006869  20.9024 339.2093 15.32503128  2761"
      },
      "geometry": {
        "type": "Point",
        "coordinates": [
          -42.42489384482153,
          -37.663568519786885
        ]
      }
    },
    {
      "type": "Feature",
      "properties": {
        "norad_id": 66557,
        "name": "STARLINK-35699",
        "group": "last-30-days",
        "lat": -15.374534138210228,
        "lon": 126.01356974014914,
        "alt_km": 412.978456487509,
        "timestamp": "2025-12-08T23:34:02.739933+00:00",
        "meta_object_name": "STARLINK-35699",
        "meta_object_id": "2025-268A",
        "meta_epoch": "2025-12-08T14:00:01.999872",
        "meta_mean_motion": 15.53218522,
        "meta_eccentricity": 8.69e-05,
        "meta_inclination": 43.0005,
        "meta_ra_of_asc_node": 145.5143,
        "meta_arg_of_pericenter": 253.0906,
        "meta_mean_anomaly": 13.5488,
        "meta_ephemeris_type": 0,
        "meta_classification_type": "U",
        "meta_norad_cat_id": 66557,
        "meta_element_set_no": 999,
        "meta_rev_at_epoch": 400,
        "meta_bstar": -0.028931857,
        "meta_mean_motion_dot": -0.01671667,
        "meta_mean_motion_ddot": 0,
        "tle_line1": "1 66557U 25268A   25342.58335648 -.01671667  00000+0 -28932-1 0  9990",
        "tle_line2": "2 66557  43.0005 145.5143 0000869 253.0906  13.5488 15.53218522  4001"
      },
      "geometry": {
        "type": "Point",
        "coordinates": [
          126.01356974014914,
          -15.374534138210228
        ]
      }
    }
  ]
}